STARLINK-35682          
1 66467U 25262M   25334.58335648 -.02053555  00000+0 -16722-1 0  9990
2 66467  42.9989 142.6650 0001399 269.0675 359.8424 15.72830284  3685
STARLINK-35331          
1 66468U 25262N   25334.58335648 -.02054573  00000+0 -16730-1 0  9991
2 66468  42.9993 142.6502 0001578 264.8141   9.8475 15.72830361  3681
STARLINK-35451          
1 66469U 25262P   25334.58335648 -.02053275  00000+0 -16720-1 0  9999
2 66469  42.9988 142.6353 0001491 264.7002  15.7143 15.72829028  3685
STARLINK-35655          
1 66470U 25262Q   25334.58335648 -.02051025  00000+0 -16701-1 0  9991
2 66470  42.9989 142.6458 0001381 259.8052  16.7780 15.72826823  3680
STARLINK-35569          
1 66471U 25262R   25334.58335648 -.02041974  00000+0 -16621-1 0  9995
2 66471  42.9988 142.6412 0001457 260.6558  17.8461 15.72820612  3683
STARLINK-35567          
1 66472U 25262S   25334.58335648 -.02050182  00000+0 -16692-1 0  9995
2 66472  42.9988 142.6313 0001486 262.7572  19.5742 15.72827682  3680
STARLINK-35568          
1 66473U 25262T   25334.58335648 -.02051879  00000+0 -16709-1 0  9999
2 66473  42.9989 142.6263 0001344 266.1219  18.1276 15.72827757  3685
STARLINK-35620          
1 66474U 25262U   25334.58335648 -.02043382  00000+0 -16632-1 0  9995
2 66474  42.9989 142.6210 0001526 261.3912  24.7760 15.72823070  3682
STARLINK-35538          
1 66475U 25262V   25334.58335648 -.02048350  00000+0 -16676-1 0  9994
2 66475  42.9990 142.6166 0001500 265.9064  22.1760 15.72826603  3682
STARLINK-35372          
1 66476U 25262W   25334.58335648 -.02050450  00000+0 -16697-1 0  9992
2 66476  42.9986 142.6112 0001239 257.4418  32.5587 15.72827487  3578
STARLINK-35354          
1 66477U 25262X   25334.58335648 -.02050958  00000+0 -16699-1 0  9998
2 66477  42.9990 142.6020 0001541 261.7020  32.1322 15.72827766  3680
STARLINK-35283          
1 66478U 25262Y   25334.58335648 -.02050544  00000+0 -16697-1 0  9998
2 66478  42.9989 142.5959 0001488 267.2447  28.5090 15.72825974  3683
