CCSDS_OMM_VERS = 2.0
CREATION_DATE  = 
ORIGINATOR     = 

OBJECT_NAME    = STARLINK-35682
OBJECT_ID      = 2025-262M
CENTER_NAME    = EARTH
REF_FRAME      = TEME
TIME_SYSTEM    = UTC
MEAN_ELEMENT_THEORY = SGP/SGP4

EPOCH          = 2025-11-30T14:00:01.999872
MEAN_MOTION    = 15.72830284
ECCENTRICITY   = .00013999
INCLINATION    = 42.9989
RA_OF_ASC_NODE = 142.6650
ARG_OF_PERICENTER = 269.0675
MEAN_ANOMALY   = 359.8424

EPHEMERIS_TYPE = 0
CLASSIFICATION_TYPE = U
NORAD_CAT_ID   = 66467
ELEMENT_SET_NO = 999
REV_AT_EPOCH   = 368
BSTAR          = -.16722175E-1
MEAN_MOTION_DOT = -.2053555E-1
MEAN_MOTION_DDOT = 0

CCSDS_OMM_VERS = 2.0
CREATION_DATE  = 
ORIGINATOR     = 

OBJECT_NAME    = STARLINK-35331
OBJECT_ID      = 2025-262N
CENTER_NAME    = EARTH
REF_FRAME      = TEME
TIME_SYSTEM    = UTC
MEAN_ELEMENT_THEORY = SGP/SGP4

EPOCH          = 2025-11-30T14:00:01.999872
MEAN_MOTION    = 15.72830361
ECCENTRICITY   = .00015781
INCLINATION    = 42.9993
RA_OF_ASC_NODE = 142.6502
ARG_OF_PERICENTER = 264.8141
MEAN_ANOMALY   = 9.8475

EPHEMERIS_TYPE = 0
CLASSIFICATION_TYPE = U
NORAD_CAT_ID   = 66468
ELEMENT_SET_NO = 999
REV_AT_EPOCH   = 368
BSTAR          = -.16730096E-1
MEAN_MOTION_DOT = -.2054573E-1
MEAN_MOTION_DDOT = 0

CCSDS_OMM_VERS = 2.0
CREATION_DATE  = 
ORIGINATOR     = 

OBJECT_NAME    = STARLINK-35451
OBJECT_ID      = 2025-262P
CENTER_NAME    = EARTH
REF_FRAME      = TEME
TIME_SYSTEM    = UTC
MEAN_ELEMENT_THEORY = SGP/SGP4

EPOCH          = 2025-11-30T14:00:01.999872
MEAN_MOTION    = 15.72829028
ECCENTRICITY   = .00014915
INCLINATION    = 42.9988
RA_OF_ASC_NODE = 142.6353
ARG_OF_PERICENTER = 264.7002
MEAN_ANOMALY   = 15.7143

EPHEMERIS_TYPE = 0
CLASSIFICATION_TYPE = U
NORAD_CAT_ID   = 66469
ELEMENT_SET_NO = 999
REV_AT_EPOCH   = 368
BSTAR          = -.16719734E-1
MEAN_MOTION_DOT = -.2053275E-1
MEAN_MOTION_DDOT = 0

CCSDS_OMM_VERS = 2.0
CREATION_DATE  = 
ORIGINATOR     = 

OBJECT_NAME    = STARLINK-35655
OBJECT_ID      = 2025-262Q
CENTER_NAME    = EARTH
REF_FRAME      = TEME
TIME_SYSTEM    = UTC
MEAN_ELEMENT_THEORY = SGP/SGP4

EPOCH          = 2025-11-30T14:00:01.999872
MEAN_MOTION    = 15.72826823
ECCENTRICITY   = .00013816
INCLINATION    = 42.9989
RA_OF_ASC_NODE = 142.6458
ARG_OF_PERICENTER = 259.8052
MEAN_ANOMALY   = 16.7780

EPHEMERIS_TYPE = 0
CLASSIFICATION_TYPE = U
NORAD_CAT_ID   = 66470
ELEMENT_SET_NO = 999
REV_AT_EPOCH   = 368
BSTAR          = -.16701354E-1
MEAN_MOTION_DOT = -.2051025E-1
MEAN_MOTION_DDOT = 0

CCSDS_OMM_VERS = 2.0
CREATION_DATE  = 
ORIGINATOR     = 

OBJECT_NAME    = STARLINK-35569
OBJECT_ID      = 2025-262R
CENTER_NAME    = EARTH
REF_FRAME      = TEME
TIME_SYSTEM    = UTC
MEAN_ELEMENT_THEORY = SGP/SGP4

EPOCH          = 2025-11-30T14:00:01.999872
MEAN_MOTION    = 15.72820612
ECCENTRICITY   = .00014578
INCLINATION    = 42.9988
RA_OF_ASC_NODE = 142.6412
ARG_OF_PERICENTER = 260.6558
MEAN_ANOMALY   = 17.8461

EPHEMERIS_TYPE = 0
CLASSIFICATION_TYPE = U
NORAD_CAT_ID   = 66471
ELEMENT_SET_NO = 999
REV_AT_EPOCH   = 368
BSTAR          = -.16621316E-1
MEAN_MOTION_DOT = -.2041974E-1
MEAN_MOTION_DDOT = 0

CCSDS_OMM_VERS = 2.0
CREATION_DATE  = 
ORIGINATOR     = 

OBJECT_NAME    = STARLINK-35567
OBJECT_ID      = 2025-262S
CENTER_NAME    = EARTH
REF_FRAME      = TEME
TIME_SYSTEM    = UTC
MEAN_ELEMENT_THEORY = SGP/SGP4

EPOCH          = 2025-11-30T14:00:01.999872
MEAN_MOTION    = 15.72827682
ECCENTRICITY   = .00014864
INCLINATION    = 42.9988
RA_OF_ASC_NODE = 142.6313
ARG_OF_PERICENTER = 262.7572
MEAN_ANOMALY   = 19.5742

EPHEMERIS_TYPE = 0
CLASSIFICATION_TYPE = U
NORAD_CAT_ID   = 66472
ELEMENT_SET_NO = 999
REV_AT_EPOCH   = 368
BSTAR          = -.16692054E-1
MEAN_MOTION_DOT = -.2050182E-1
MEAN_MOTION_DDOT = 0

CCSDS_OMM_VERS = 2.0
CREATION_DATE  = 
ORIGINATOR     = 

OBJECT_NAME    = STARLINK-35568
OBJECT_ID      = 2025-262T
CENTER_NAME    = EARTH
REF_FRAME      = TEME
TIME_SYSTEM    = UTC
MEAN_ELEMENT_THEORY = SGP/SGP4

EPOCH          = 2025-11-30T14:00:01.999872
MEAN_MOTION    = 15.72827757
ECCENTRICITY   = .00013441
INCLINATION    = 42.9989
RA_OF_ASC_NODE = 142.6263
ARG_OF_PERICENTER = 266.1219
MEAN_ANOMALY   = 18.1276

EPHEMERIS_TYPE = 0
CLASSIFICATION_TYPE = U
NORAD_CAT_ID   = 66473
ELEMENT_SET_NO = 999
REV_AT_EPOCH   = 368
BSTAR          = -.16708904E-1
MEAN_MOTION_DOT = -.2051879E-1
MEAN_MOTION_DDOT = 0

CCSDS_OMM_VERS = 2.0
CREATION_DATE  = 
ORIGINATOR     = 

OBJECT_NAME    = STARLINK-35620
OBJECT_ID      = 2025-262U
CENTER_NAME    = EARTH
REF_FRAME      = TEME
TIME_SYSTEM    = UTC
MEAN_ELEMENT_THEORY = SGP/SGP4

EPOCH          = 2025-11-30T14:00:01.999872
MEAN_MOTION    = 15.72823070
ECCENTRICITY   = .00015268
INCLINATION    = 42.9989
RA_OF_ASC_NODE = 142.6210
ARG_OF_PERICENTER = 261.3912
MEAN_ANOMALY   = 24.7760

EPHEMERIS_TYPE = 0
CLASSIFICATION_TYPE = U
NORAD_CAT_ID   = 66474
ELEMENT_SET_NO = 999
REV_AT_EPOCH   = 368
BSTAR          = -.16632027E-1
MEAN_MOTION_DOT = -.2043382E-1
MEAN_MOTION_DDOT = 0

CCSDS_OMM_VERS = 2.0
CREATION_DATE  = 
ORIGINATOR     = 

OBJECT_NAME    = STARLINK-35538
OBJECT_ID      = 2025-262V
CENTER_NAME    = EARTH
REF_FRAME      = TEME
TIME_SYSTEM    = UTC
MEAN_ELEMENT_THEORY = SGP/SGP4

EPOCH          = 2025-11-30T14:00:01.999872
MEAN_MOTION    = 15.72826603
ECCENTRICITY   = .00015005
INCLINATION    = 42.9990
RA_OF_ASC_NODE = 142.6166
ARG_OF_PERICENTER = 265.9064
MEAN_ANOMALY   = 22.1760

EPHEMERIS_TYPE = 0
CLASSIFICATION_TYPE = U
NORAD_CAT_ID   = 66475
ELEMENT_SET_NO = 999
REV_AT_EPOCH   = 368
BSTAR          = -.16675741E-1
MEAN_MOTION_DOT = -.204835E-1
MEAN_MOTION_DDOT = 0

CCSDS_OMM_VERS = 2.0
CREATION_DATE  = 
ORIGINATOR     = 

OBJECT_NAME    = STARLINK-35372
OBJECT_ID      = 2025-262W
CENTER_NAME    = EARTH
REF_FRAME      = TEME
TIME_SYSTEM    = UTC
MEAN_ELEMENT_THEORY = SGP/SGP4

EPOCH          = 2025-11-30T14:00:01.999872
MEAN_MOTION    = 15.72827487
ECCENTRICITY   = .00012397
INCLINATION    = 42.9986
RA_OF_ASC_NODE = 142.6112
ARG_OF_PERICENTER = 257.4418
MEAN_ANOMALY   = 32.5587

EPHEMERIS_TYPE = 0
CLASSIFICATION_TYPE = U
NORAD_CAT_ID   = 66476
ELEMENT_SET_NO = 999
REV_AT_EPOCH   = 357
BSTAR          = -.16696674E-1
MEAN_MOTION_DOT = -.205045E-1
MEAN_MOTION_DDOT = 0

CCSDS_OMM_VERS = 2.0
CREATION_DATE  = 
ORIGINATOR     = 

OBJECT_NAME    = STARLINK-35354
OBJECT_ID      = 2025-262X
CENTER_NAME    = EARTH
REF_FRAME      = TEME
TIME_SYSTEM    = UTC
MEAN_ELEMENT_THEORY = SGP/SGP4

EPOCH          = 2025-11-30T14:00:01.999872
MEAN_MOTION    = 15.72827766
ECCENTRICITY   = .00015411
INCLINATION    = 42.9990
RA_OF_ASC_NODE = 142.6020
ARG_OF_PERICENTER = 261.7020
MEAN_ANOMALY   = 32.1322

EPHEMERIS_TYPE = 0
CLASSIFICATION_TYPE = U
NORAD_CAT_ID   = 66477
ELEMENT_SET_NO = 999
REV_AT_EPOCH   = 368
BSTAR          = -.16698742E-1
MEAN_MOTION_DOT = -.2050958E-1
MEAN_MOTION_DDOT = 0

CCSDS_OMM_VERS = 2.0
CREATION_DATE  = 
ORIGINATOR     = 

OBJECT_NAME    = STARLINK-35283
OBJECT_ID      = 2025-262Y
CENTER_NAME    = EARTH
REF_FRAME      = TEME
TIME_SYSTEM    = UTC
MEAN_ELEMENT_THEORY = SGP/SGP4

EPOCH          = 2025-11-30T14:00:01.999872
MEAN_MOTION    = 15.72825974
ECCENTRICITY   = .00014883
INCLINATION    = 42.9989
RA_OF_ASC_NODE = 142.5959
ARG_OF_PERICENTER = 267.2447
MEAN_ANOMALY   = 28.5090

EPHEMERIS_TYPE = 0
CLASSIFICATION_TYPE = U
NORAD_CAT_ID   = 66478
ELEMENT_SET_NO = 999
REV_AT_EPOCH   = 368
BSTAR          = -.16696636E-1
MEAN_MOTION_DOT = -.2050544E-1
MEAN_MOTION_DDOT = 0

